STARLINK-1667
1 16155C 20057AQ  21326.04741083 -.00013333  00000-0 -89311-3 0  3260
2 16155  53.0520 118.5289 0001447  73.1087 316.4304 15.06419793    11
